ONEWEB-0102             
1 47258U 20100A   24293.88792652  .00000150  00000+0  38044-3 0  9993
2 47258  87.8844 111.2335 0001599  82.0760 278.0550 13.12441624185335
ONEWEB-0109             
1 47259U 20100B   24294.04849404  .00001024  00000+0  28092-2 0  9993
2 47259  87.8842 111.1670 0001680  83.0608 277.0712 13.12451300185182
ONEWEB-0110             
1 47260U 20100C   24293.92198085 -.00000360  00000+0 -10349-2 0  9993
2 47260  87.8846 111.1915 0001710  86.0369 274.0955 13.12444099185331
ONEWEB-0111             
1 47261U 20100D   24293.87656459  .00000551  00000+0  14955-2 0  9999
2 47261  87.8843 111.2023 0001619  86.2611 273.8702 13.12445047185162
ONEWEB-0114             
1 47262U 20100E   24293.90736765 -.00001442  00000+0 -40430-2 0  9992
2 47262  87.8839 111.2061 0001634  78.4830 281.6482 13.12445218185121
ONEWEB-0117             
1 47263U 20100F   24293.89927475 -.00000159  00000+0 -47714-3 0  9998
2 47263  87.8843 111.1887 0001668  89.4059 270.7261 13.12439975185132
ONEWEB-0118             
1 47264U 20100G   24293.93171637  .00000124  00000+0  30903-3 0  9997
2 47264  87.8836 111.1852 0001285  79.9336 280.1937 13.12443700185332
ONEWEB-0119             
1 47265U 20100H   24293.88305978  .00000422  00000+0  11365-2 0  9990
2 47265  87.8843 111.2339 0001661  86.6537 273.4782 13.12441885185300
